{
  "norad_id": 38251,
  "name": "BEIDOU-2 M4",
  "history": [
    {
      "epoch": "2026-03-26T23:11:35.297664Z",
      "apogee_km": 21561.094322944526,
      "perigee_km": 21495.313496152536,
      "latitude_deg": -1.27790099423864e-06,
      "longitude_deg": 134.58006622032093,
      "height_km": 21519.239987316698,
      "semi_major_axis_km": 27906.34090954853,
      "eccentricity": 0.0011786,
      "inclination_deg": 55.7282,
      "raan_deg": 306.8676,
      "arg_perigee_deg": 286.4147,
      "mean_anomaly_deg": 73.4963,
      "mean_motion_rev_day": 1.86229475
    }
  ]
}